[{"OBJECT_NAME":"OBJECT B","OBJECT_ID":"2024-153B","EPOCH":"2026-03-09T23:15:18.632160","MEAN_MOTION":15.30512917,"ECCENTRICITY":0.00113423,"INCLINATION":97.6622,"RA_OF_ASC_NODE":204.9195,"ARG_OF_PERICENTER":149.8438,"MEAN_ANOMALY":210.3457,"EPHEMERIS_TYPE":0,"CLASSIFICATION_TYPE":"U","NORAD_CAT_ID":60746,"ELEMENT_SET_NO":999,"REV_AT_EPOCH":8476,"BSTAR":0.00066193599,"MEAN_MOTION_DOT":0.00019515,"MEAN_MOTION_DDOT":0},{"OBJECT_NAME":"STARLINK-32305","OBJECT_ID":"2024-183Q","EPOCH":"2026-03-09T10:40:02.657280","MEAN_MOTION":15.30188562,"ECCENTRICITY":8.162e-5,"INCLINATION":53.1597,"RA_OF_ASC_NODE":143.667,"ARG_OF_PERICENTER":111.3915,"MEAN_ANOMALY":248.7173,"EPHEMERIS_TYPE":0,"CLASSIFICATION_TYPE":"U","NORAD_CAT_ID":61523,"ELEMENT_SET_NO":999,"REV_AT_EPOCH":7961,"BSTAR":1.2922894e-5,"MEAN_MOTION_DOT":2.4e-7,"MEAN_MOTION_DDOT":0}]
